{"type": "FeatureCollection", "features": [ {"type": "Feature", "properties": {"norad_id": 40697, "name": "SENTINEL-2A", "group": "resource", "lat": -63.04197336080468, "lon": 73.30667702998727, "alt_km": 796.8156939118835, "timestamp": "2025-12-09T11:33:54.457606+00:00", "meta": {"OBJECT_NAME": "SENTINEL-2A", "OBJECT_ID": "2015-028A", "EPOCH": "2025-12-09T05:09:07.803360", "MEAN_MOTION": 14.3082437, "ECCENTRICITY": 0.0001037, "INCLINATION": 98.5694, "RA_OF_ASC_NODE": 55.7975, "ARG_OF_PERICENTER": 91.0494, "MEAN_ANOMALY": 269.0808, "EPHEMERIS_TYPE": 0, "CLASSIFICATION_TYPE": "U", "NORAD_CAT_ID": 40697, "ELEMENT_SET_NO": 999, "REV_AT_EPOCH": 54656, "BSTAR": -5.1089e-07, "MEAN_MOTION_DOT": -4.5e-07, "MEAN_MOTION_DDOT": 0}, "tle": {"line1": "1 40697U 15028A   25343.21467365 -.00000045  00000+0 -51089-6 0  9992", "line2": "2 40697  98.5694  55.7975 0001037  91.0494 269.0808 14.30824370546566"}}, "geometry": {"type": "Point", "coordinates": [73.30667702998727, -63.04197336080468]}}, {"type": "Feature", "properties": {"norad_id": 40701, "name": "GAOFEN-8", "group": "resource", "lat": 17.698213093457618, "lon": -16.064449539057293, "alt_km": 443.87842347087826, "timestamp": "2025-12-09T11:33:54.457616+00:00", "meta": {"OBJECT_NAME": "GAOFEN-8", "OBJECT_ID": "2015-030A", "EPOCH": "2025-12-09T04:37:08.548320", "MEAN_MOTION": 15.38353277, "ECCENTRICITY": 0.0011449, "INCLINATION": 97.691, "RA_OF_ASC_NODE": 161.1606, "ARG_OF_PERICENTER": 149.8511, "MEAN_ANOMALY": 210.3394, "EPHEMERIS_TYPE": 0, "CLASSIFICATION_TYPE": "U", "NORAD_CAT_ID": 40701, "ELEMENT_SET_NO": 999, "REV_AT_EPOCH": 58216, "BSTAR": 0.00032101, "MEAN_MOTION_DOT": 0.0001208, "MEAN_MOTION_DDOT": 0}, "tle": {"line1": "1 40701U 15030A   25343.19246005  .00012080  00000+0  32101-3 0  9995", "line2": "2 40701  97.6910 161.1606 0011449 149.8511 210.3394 15.38353277582163"}}, "geometry": {"type": "Point", "coordinates": [-16.064449539057293, 17.698213093457618]}}, {"type": "Feature", "properties": {"norad_id": 40718, "name": "CARBONITE 1 (CBNT-1)", "group": "resource", "lat": 25.69709660634944, "lon": 160.96556503759527, "alt_km": 629.5574855933146, "timestamp": "2025-12-09T11:33:54.457626+00:00", "meta": {"OBJECT_NAME": "CARBONITE 1 (CBNT-1)", "OBJECT_ID": "2015-032D", "EPOCH": "2025-12-09T03:20:59.674848", "MEAN_MOTION": 14.82715962, "ECCENTRICITY": 0.0014141, "INCLINATION": 97.6404, "RA_OF_ASC_NODE": 164.3421, "ARG_OF_PERICENTER": 193.063, "MEAN_ANOMALY": 167.022, "EPHEMERIS_TYPE": 0, "CLASSIFICATION_TYPE": "U", "NORAD_CAT_ID": 40718, "ELEMENT_SET_NO": 999, "REV_AT_EPOCH": 56117, "BSTAR": 0.00029179, "MEAN_MOTION_DOT": 2.309e-05, "MEAN_MOTION_DDOT": 0}, "tle": {"line1": "1 40718U 15032D   25343.13957957  .00002309  00000+0  29179-3 0  9998", "line2": "2 40718  97.6404 164.3421 0014141 193.0630 167.0220 14.82715962561179"}}, "geometry": {"type": "Point", "coordinates": [160.96556503759527, 25.69709660634944]}}, {"type": "Feature", "properties": {"norad_id": 40878, "name": "YAOGAN-27", "group": "resource", "lat": -54.66438378071917, "lon": 138.68806236053544, "alt_km": 1203.710595742199, "timestamp": "2025-12-09T11:33:54.457637+00:00", "meta": {"OBJECT_NAME": "YAOGAN-27", "OBJECT_ID": "2015-040A", "EPOCH": "2025-12-09T04:53:45.023712", "MEAN_MOTION": 13.16058709, "ECCENTRICITY": 0.0007689, "INCLINATION": 100.1005, "RA_OF_ASC_NODE": 332.9834, "ARG_OF_PERICENTER": 295.5799, "MEAN_ANOMALY": 64.4519, "EPHEMERIS_TYPE": 0, "CLASSIFICATION_TYPE": "U", "NORAD_CAT_ID": 40878, "ELEMENT_SET_NO": 999, "REV_AT_EPOCH": 49267, "BSTAR": -0.00029913, "MEAN_MOTION_DOT": -1.56e-06, "MEAN_MOTION_DDOT": 0}, "tle": {"line1": "1 40878U 15040A   25343.20399333 -.00000156  00000+0 -29913-3 0  9996", "line2": "2 40878 100.1005 332.9834 0007689 295.5799  64.4519 13.16058709492671"}}, "geometry": {"type": "Point", "coordinates": [138.68806236053544, -54.66438378071917]}}, {"type": "Feature", "properties": {"norad_id": 40894, "name": "GAOFEN-9 01", "group": "resource", "lat": -49.20917033351595, "lon": 31.544566070197206, "alt_km": 630.0731841112465, "timestamp": "2025-12-09T11:33:54.457647+00:00", "meta": {"OBJECT_NAME": "GAOFEN-9 01", "OBJECT_ID": "2015-047A", "EPOCH": "2025-12-09T05:18:32.702112", "MEAN_MOTION": 14.82407459, "ECCENTRICITY": 0.0028643, "INCLINATION": 97.6546, "RA_OF_ASC_NODE": 22.3286, "ARG_OF_PERICENTER": 45.4176, "MEAN_ANOMALY": 314.9369, "EPHEMERIS_TYPE": 0, "CLASSIFICATION_TYPE": "U", "NORAD_CAT_ID": 40894, "ELEMENT_SET_NO": 999, "REV_AT_EPOCH": 55204, "BSTAR": 0.00022415, "MEAN_MOTION_DOT": 1.757e-05, "MEAN_MOTION_DDOT": 0}, "tle": {"line1": "1 40894U 15047A   25343.22121183  .00001757  00000+0  22415-3 0  9995", "line2": "2 40894  97.6546  22.3286 0028643  45.4176 314.9369 14.82407459552042"}}, "geometry": {"type": "Point", "coordinates": [31.544566070197206, -49.20917033351595]}}, {"type": "Feature", "properties": {"norad_id": 41026, "name": "YAOGAN-28", "group": "resource", "lat": -28.435153964131374, "lon": 125.33619123950528, "alt_km": 507.0755443658536, "timestamp": "2025-12-09T11:33:54.457657+00:00", "meta": {"OBJECT_NAME": "YAOGAN-28", "OBJECT_ID": "2015-064A", "EPOCH": "2025-12-09T05:23:19.652064", "MEAN_MOTION": 15.24257709, "ECCENTRICITY": 0.001225, "INCLINATION": 97.2808, "RA_OF_ASC_NODE": 121.1164, "ARG_OF_PERICENTER": 137.5449, "MEAN_ANOMALY": 222.6739, "EPHEMERIS_TYPE": 0, "CLASSIFICATION_TYPE": "U", "NORAD_CAT_ID": 41026, "ELEMENT_SET_NO": 999, "REV_AT_EPOCH": 56171, "BSTAR": 0.00044187, "MEAN_MOTION_DOT": 0.00010743, "MEAN_MOTION_DDOT": 0}, "tle": {"line1": "1 41026U 15064A   25343.22453301  .00010743  00000+0  44187-3 0  9997", "line2": "2 41026  97.2808 121.1164 0012250 137.5449 222.6739 15.24257709561711"}}, "geometry": {"type": "Point", "coordinates": [125.33619123950528, -28.435153964131374]}}, {"type": "Feature", "properties": {"norad_id": 41038, "name": "YAOGAN-29", "group": "resource", "lat": -12.899122211381272, "lon": -175.20794764628502, "alt_km": 625.0601038241875, "timestamp": "2025-12-09T11:33:54.457667+00:00", "meta": {"OBJECT_NAME": "YAOGAN-29", "OBJECT_ID": "2015-069A", "EPOCH": "2025-12-09T04:13:12.112896", "MEAN_MOTION": 14.82878292, "ECCENTRICITY": 4.11e-05, "INCLINATION": 98.0218, "RA_OF_ASC_NODE": 6.3358, "ARG_OF_PERICENTER": 355.7513, "MEAN_ANOMALY": 4.3696, "EPHEMERIS_TYPE": 0, "CLASSIFICATION_TYPE": "U", "NORAD_CAT_ID": 41038, "ELEMENT_SET_NO": 999, "REV_AT_EPOCH": 54246, "BSTAR": 0.00015249, "MEAN_MOTION_DOT": 1.181e-05, "MEAN_MOTION_DDOT": 0}, "tle": {"line1": "1 41038U 15069A   25343.17583464  .00001181  00000+0  15249-3 0  9996", "line2": "2 41038  98.0218   6.3358 0000411 355.7513   4.3696 14.82878292542466"}}, "geometry": {"type": "Point", "coordinates": [-175.20794764628502, -12.899122211381272]}}, {"type": "Feature", "properties": {"norad_id": 41167, "name": "KENT RIDGE 1", "group": "resource", "lat": -14.464716702331968, "lon": 160.56728389197542, "alt_km": 505.4393358397301, "timestamp": "2025-12-09T11:33:54.457677+00:00", "meta": {"OBJECT_NAME": "KENT RIDGE 1", "OBJECT_ID": "2015-077B", "EPOCH": "2025-12-08T23:18:29.879424", "MEAN_MOTION": 15.21589468, "ECCENTRICITY": 0.0008538, "INCLINATION": 14.979, "RA_OF_ASC_NODE": 239.1062, "ARG_OF_PERICENTER": 77.2496, "MEAN_ANOMALY": 282.878, "EPHEMERIS_TYPE": 0, "CLASSIFICATION_TYPE": "U", "NORAD_CAT_ID": 41167, "ELEMENT_SET_NO": 999, "REV_AT_EPOCH": 55206, "BSTAR": 0.00022039, "MEAN_MOTION_DOT": 5.884e-05, "MEAN_MOTION_DDOT": 0}, "tle": {"line1": "1 41167U 15077B   25342.97117916  .00005884  00000+0  22039-3 0  9999", "line2": "2 41167  14.9790 239.1062 0008538  77.2496 282.8780 15.21589468552065"}}, "geometry": {"type": "Point", "coordinates": [160.56728389197542, -14.464716702331968]}}, {"type": "Feature", "properties": {"norad_id": 41194, "name": "GAOFEN-4", "group": "resource", "lat": -0.15398102606572292, "lon": -2.3419803175831477, "alt_km": 35801.42689572178, "timestamp": "2025-12-09T11:33:54.457690+00:00", "meta": {"OBJECT_NAME": "GAOFEN-4", "OBJECT_ID": "2015-083A", "EPOCH": "2025-12-09T00:22:47.064000", "MEAN_MOTION": 1.00270911, "ECCENTRICITY": 0.0003628, "INCLINATION": 0.1609, "RA_OF_ASC_NODE": 80.6946, "ARG_OF_PERICENTER": 106.792, "MEAN_ANOMALY": 1.9288, "EPHEMERIS_TYPE": 0, "CLASSIFICATION_TYPE": "U", "NORAD_CAT_ID": 41194, "ELEMENT_SET_NO": 999, "REV_AT_EPOCH": 3662, "BSTAR": 0, "MEAN_MOTION_DOT": -3.33e-06, "MEAN_MOTION_DDOT": 0}, "tle": {"line1": "1 41194U 15083A   25343.01582250 -.00000333  00000+0  00000+0 0  9994", "line2": "2 41194   0.1609  80.6946 0003628 106.7920   1.9288  1.00270911 36620"}}, "geometry": {"type": "Point", "coordinates": [-2.3419803175831477, -0.15398102606572292]}}, {"type": "Feature", "properties": {"norad_id": 41240, "name": "JASON-3", "group": "resource", "lat": -26.043843649934253, "lon": 152.12336952320206, "alt_km": 1312.9393263268212, "timestamp": "2025-12-09T11:33:54.457701+00:00", "meta": {"OBJECT_NAME": "JASON-3", "OBJECT_ID": "2016-002A", "EPOCH": "2025-12-09T04:15:27.031680", "MEAN_MOTION": 12.87626347, "ECCENTRICITY": 0.0007134, "INCLINATION": 66.0389, "RA_OF_ASC_NODE": 165.3138, "ARG_OF_PERICENTER": 270.5939, "MEAN_ANOMALY": 89.4262, "EPHEMERIS_TYPE": 0, "CLASSIFICATION_TYPE": "U", "NORAD_CAT_ID": 41240, "ELEMENT_SET_NO": 999, "REV_AT_EPOCH": 46278, "BSTAR": 5.7794e-05, "MEAN_MOTION_DOT": -4.8e-07, "MEAN_MOTION_DDOT": 0}, "tle": {"line1": "1 41240U 16002A   25343.17739620 -.00000048  00000+0  57794-4 0  9990", "line2": "2 41240  66.0389 165.3138 0007134 270.5939  89.4262 12.87626347462786"}}, "geometry": {"type": "Point", "coordinates": [152.12336952320206, -26.043843649934253]}}]}